0 FENGYUN 1C DEB
1 31379U 99025BSK 13280.99959798  .00005514  00000-0  11557-2 0  5281
2 31379 099.4917 203.0939 0196164 114.1168 248.1308 14.48792473343936
0 FENGYUN 1C DEB
1 31379U 99025BSK 13283.00238417  .00005716  00000-0  11939-2 0  5293
2 31379 099.4942 205.3481 0197101 108.5269 253.8228 14.48819076344228
0 FENGYUN 1C DEB
1 31379U 99025BSK 13285.00509841  .00006222  00000-0  12806-2 0  5317
2 31379 099.5005 207.6176 0202167 103.6504 258.7891 14.48853149344513
0 FENGYUN 1C DEB
1 31379U 99025BSK 13286.59344251  .00006365  00000-0  13010-2 0  5321
2 31379 099.5055 209.4175 0204533 099.1969 263.2855 14.48875948344747
0 FENGYUN 1C DEB
1 31379U 99025BSK 13287.00778291  .00006609  00000-0  13443-2 0  5335
2 31379 099.5161 209.9067 0206150 098.6915 263.8682 14.48886155344805
0 FENGYUN 1C DEB
1 31379U 99025BSK 13291.63429555  .00015658  00000-0  32137-2 0  5341
2 31379 099.4938 215.0684 0198647 082.6167 279.7548 14.49035334345479
0 FENGYUN 1C DEB
1 31379U 99025BSK 13293.01527858  .00009177  00000-0  19267-2 0  5359
2 31379 099.4712 216.5573 0191067 076.0508 285.8711 14.49034158345672
